{
  "links" : {
    "next" : "https://api.nasa.gov/neo/rest/v1/neo/browse?page=49&size=20&api_key=jqAGvNAwUIBu4fl9FSOjdm3V4F7hIglRzI6pdX9d",
    "prev" : "https://api.nasa.gov/neo/rest/v1/neo/browse?page=47&size=20&api_key=jqAGvNAwUIBu4fl9FSOjdm3V4F7hIglRzI6pdX9d",
    "self" : "https://api.nasa.gov/neo/rest/v1/neo/browse?page=48&size=20&api_key=jqAGvNAwUIBu4fl9FSOjdm3V4F7hIglRzI6pdX9d"
  },
  "page" : {
    "size" : 20,
    "total_elements" : 20750,
    "total_pages" : 1038,
    "number" : 48
  },
  "near_earth_objects" : [ {
    "links" : {
      "self" : "https://api.nasa.gov/neo/rest/v1/neo/3435540?api_key=jqAGvNAwUIBu4fl9FSOjdm3V4F7hIglRzI6pdX9d"
    },
    "neo_reference_id" : "3435540",
    "name" : "(2008 UB202)",
    "designation" : "2008 UB202",
    "nasa_jpl_url" : "http://ssd.jpl.nasa.gov/sbdb.cgi?sstr=3435540",
    "absolute_magnitude_h" : 23.2,
    "estimated_diameter" : {
      "kilometers" : {
        "estimated_diameter_min" : 0.0608912622,
        "estimated_diameter_max" : 0.1361570015
      },
      "meters" : {
        "estimated_diameter_min" : 60.8912622106,
        "estimated_diameter_max" : 136.1570015386
      },
      "miles" : {
        "estimated_diameter_min" : 0.0378360645,
        "estimated_diameter_max" : 0.0846040122
      },
      "feet" : {
        "estimated_diameter_min" : 199.7744887109,
        "estimated_diameter_max" : 446.7093369279
      }
    },
    "is_potentially_hazardous_asteroid" : false,
    "close_approach_data" : [ {
      "close_approach_date" : "2008-10-17",
      "epoch_date_close_approach" : 1224226800000,
      "relative_velocity" : {
        "kilometers_per_second" : "4.040636236",
        "kilometers_per_hour" : "14546.2904494249",
        "miles_per_hour" : "9038.4991961996"
      },
      "miss_distance" : {
        "astronomical" : "0.2892047268",
        "lunar" : "112.5006332397",
        "kilometers" : "43264412",
        "miles" : "26883258"
      },
      "orbiting_body" : "Earth"
    } ],
    "orbital_data" : {
      "orbit_id" : "7",
      "orbit_determination_date" : "2017-04-06 09:02:20",
      "first_observation_date" : "2008-10-31",
      "last_observation_date" : "2008-11-07",
      "data_arc_in_days" : 7,
      "observations_used" : 21,
      "orbit_uncertainty" : "8",
      "minimum_orbit_intersection" : ".288899",
      "jupiter_tisserand_invariant" : "3.286",
      "epoch_osculation" : "2454772.5",
      "eccentricity" : ".4865875269025959",
      "semi_major_axis" : "2.497520419244804",
      "inclination" : "6.555787733603899",
      "ascending_node_longitude" : "223.7271203707542",
      "orbital_period" : "1441.657176803334",
      "perihelion_distance" : "1.28225813505574",
      "perihelion_argument" : "160.7220003069424",
      "aphelion_distance" : "3.712782703433867",
      "perihelion_time" : "2454757.547255840654",
      "mean_anomaly" : "3.733889016042327",
      "mean_motion" : ".2497126264083448",
      "equinox" : "J2000",
      "orbit_class" : {
        "orbit_class_type" : "AMO",
        "orbit_class_range" : "1.017 AU < q (perihelion) < 1.3 AU",
        "orbit_class_description" : "Near-Earth asteroid orbits similar to that of 1221 Amor"
      }
    },
    "is_sentry_object" : false
  }, {
    "links" : {
      "self" : "https://api.nasa.gov/neo/rest/v1/neo/3435542?api_key=jqAGvNAwUIBu4fl9FSOjdm3V4F7hIglRzI6pdX9d"
    },
    "neo_reference_id" : "3435542",
    "name" : "(2008 UD202)",
    "designation" : "2008 UD202",
    "nasa_jpl_url" : "http://ssd.jpl.nasa.gov/sbdb.cgi?sstr=3435542",
    "absolute_magnitude_h" : 23.9,
    "estimated_diameter" : {
      "kilometers" : {
        "estimated_diameter_min" : 0.04411182,
        "estimated_diameter_max" : 0.0986370281
      },
      "meters" : {
        "estimated_diameter_min" : 44.1118199997,
        "estimated_diameter_max" : 98.6370281305
      },
      "miles" : {
        "estimated_diameter_min" : 0.0274098057,
        "estimated_diameter_max" : 0.0612901888
      },
      "feet" : {
        "estimated_diameter_min" : 144.7238235278,
        "estimated_diameter_max" : 323.6123073718
      }
    },
    "is_potentially_hazardous_asteroid" : false,
    "close_approach_data" : [ {
      "close_approach_date" : "2008-09-17",
      "epoch_date_close_approach" : 1221634800000,
      "relative_velocity" : {
        "kilometers_per_second" : "4.3072823136",
        "kilometers_per_hour" : "15506.2163288569",
        "miles_per_hour" : "9634.9598072278"
      },
      "miss_distance" : {
        "astronomical" : "0.142081479",
        "lunar" : "55.2696990967",
        "kilometers" : "21255088",
        "miles" : "13207299"
      },
      "orbiting_body" : "Earth"
    } ],
    "orbital_data" : {
      "orbit_id" : "7",
      "orbit_determination_date" : "2017-04-06 09:02:19",
      "first_observation_date" : "2008-10-31",
      "last_observation_date" : "2008-11-03",
      "data_arc_in_days" : 3,
      "observations_used" : 19,
      "orbit_uncertainty" : "9",
      "minimum_orbit_intersection" : ".136208",
      "jupiter_tisserand_invariant" : "3.852",
      "epoch_osculation" : "2454772.5",
      "eccentricity" : ".4124493779009172",
      "semi_major_axis" : "1.884977362689624",
      "inclination" : "5.684067944641288",
      "ascending_node_longitude" : "234.9524963676064",
      "orbital_period" : "945.2738316943867",
      "perihelion_distance" : "1.107519622090977",
      "perihelion_argument" : "118.2542585563231",
      "aphelion_distance" : "2.662435103288271",
      "perihelion_time" : "2454723.294619655746",
      "mean_anomaly" : "18.73947667860383",
      "mean_motion" : ".3808420247439901",
      "equinox" : "J2000",
      "orbit_class" : {
        "orbit_class_type" : "AMO",
        "orbit_class_range" : "1.017 AU < q (perihelion) < 1.3 AU",
        "orbit_class_description" : "Near-Earth asteroid orbits similar to that of 1221 Amor"
      }
    },
    "is_sentry_object" : false
  }, {
    "links" : {
      "self" : "https://api.nasa.gov/neo/rest/v1/neo/3435543?api_key=jqAGvNAwUIBu4fl9FSOjdm3V4F7hIglRzI6pdX9d"
    },
    "neo_reference_id" : "3435543",
    "name" : "(2008 UE202)",
    "designation" : "2008 UE202",
    "nasa_jpl_url" : "http://ssd.jpl.nasa.gov/sbdb.cgi?sstr=3435543",
    "absolute_magnitude_h" : 21.9,
    "estimated_diameter" : {
      "kilometers" : {
        "estimated_diameter_min" : 0.1108038821,
        "estimated_diameter_max" : 0.2477650126
      },
      "meters" : {
        "estimated_diameter_min" : 110.8038821264,
        "estimated_diameter_max" : 247.7650126055
      },
      "miles" : {
        "estimated_diameter_min" : 0.068850319,
        "estimated_diameter_max" : 0.1539539936
      },
      "feet" : {
        "estimated_diameter_min" : 363.5298086356,
        "estimated_diameter_max" : 812.8773639568
      }
    },
    "is_potentially_hazardous_asteroid" : false,
    "close_approach_data" : [ {
      "close_approach_date" : "2008-10-08",
      "epoch_date_close_approach" : 1223449200000,
      "relative_velocity" : {
        "kilometers_per_second" : "2.2356712204",
        "kilometers_per_hour" : "8048.4163935919",
        "miles_per_hour" : "5000.9729530071"
      },
      "miss_distance" : {
        "astronomical" : "0.2981472625",
        "lunar" : "115.9792861938",
        "kilometers" : "44602196",
        "miles" : "27714520"
      },
      "orbiting_body" : "Earth"
    } ],
    "orbital_data" : {
      "orbit_id" : "12",
      "orbit_determination_date" : "2017-04-06 09:02:19",
      "first_observation_date" : "2008-10-01",
      "last_observation_date" : "2008-11-18",
      "data_arc_in_days" : 48,
      "observations_used" : 33,
      "orbit_uncertainty" : "6",
      "minimum_orbit_intersection" : ".300971",
      "jupiter_tisserand_invariant" : "3.318",
      "epoch_osculation" : "2458600.5",
      "eccentricity" : ".4741407469602993",
      "semi_major_axis" : "2.471795641665289",
      "inclination" : "2.014192986220177",
      "ascending_node_longitude" : "348.3068360731548",
      "orbital_period" : "1419.440753508019",
      "perihelion_distance" : "1.299816609792896",
      "perihelion_argument" : "27.74681353367078",
      "aphelion_distance" : "3.643774673537682",
      "perihelion_time" : "2458997.873298935340",
      "mean_anomaly" : "259.2177818882708",
      "mean_motion" : ".2536210117331721",
      "equinox" : "J2000",
      "orbit_class" : {
        "orbit_class_type" : "AMO",
        "orbit_class_range" : "1.017 AU < q (perihelion) < 1.3 AU",
        "orbit_class_description" : "Near-Earth asteroid orbits similar to that of 1221 Amor"
      }
    },
    "is_sentry_object" : false
  } ]
}